[{"OBJECT_NAME":"STARLINK-31069","OBJECT_ID":"2023-200U","EPOCH":"2026-03-09T22:00:01.999584","MEAN_MOTION":15.26757578,"ECCENTRICITY":0.00014389,"INCLINATION":42.9995,"RA_OF_ASC_NODE":167.4364,"ARG_OF_PERICENTER":264.9451,"MEAN_ANOMALY":218.2454,"EPHEMERIS_TYPE":0,"CLASSIFICATION_TYPE":"U","NORAD_CAT_ID":58607,"ELEMENT_SET_NO":999,"REV_AT_EPOCH":563,"BSTAR":-0.00040465945,"MEAN_MOTION_DOT":-0.00011104,"MEAN_MOTION_DDOT":0},{"OBJECT_NAME":"HERMES-4","OBJECT_ID":"2025-052BP","EPOCH":"2026-03-09T22:05:58.629408","MEAN_MOTION":15.26796135,"ECCENTRICITY":0.00026523,"INCLINATION":97.4,"RA_OF_ASC_NODE":323.461,"ARG_OF_PERICENTER":154.9526,"MEAN_ANOMALY":205.1842,"EPHEMERIS_TYPE":0,"CLASSIFICATION_TYPE":"U","NORAD_CAT_ID":63833,"ELEMENT_SET_NO":999,"REV_AT_EPOCH":5478,"BSTAR":0.00081237216,"MEAN_MOTION_DOT":0.00021364,"MEAN_MOTION_DDOT":0}]
